ORBCOMM FM05 [-]        
1 25117U 97084F   23364.16867923  .00001841  00000+0  60017-3 0  9994
2 25117  45.0165  48.3321 0000981 356.0450   4.0392 14.41931677364229
ORBCOMM FM06 [+]        
1 25118U 97084G   23364.50202032  .00001961  00000+0  63655-3 0  9991
2 25118  45.0158  46.9196 0000593 289.0621 215.4548 14.41906100364268
ORBCOMM FM07 [-]        
1 25119U 97084H   23363.97393881  .00002018  00000+0  65459-3 0  9993
2 25119  45.0154  49.9088 0001940 357.6542   2.4298 14.41843564364180
ORBCOMM FM03 [-]        
1 25158U 98007B   23364.13311694  .00001638  00000+0  65537-3 0  9997
2 25158 107.9733 118.8072 0045325 104.2135 256.4044 14.31650007347539
ORBCOMM FM04 [+]        
1 25159U 98007C   23363.93585627  .00001466  00000+0  59014-3 0  9996
2 25159 107.9725 121.2518 0040818 102.5508 258.0200 14.31908074347533
ORBCOMM FM17 [-]        
1 25413U 98046A   23364.08949701  .00001006  00000+0  41788-3 0  9995
2 25413  44.9951 257.9059 0002788  33.2080 326.8940 14.32654987326548
ORBCOMM FM18 [-]        
1 25414U 98046B   23363.63503501  .00001369  00000+0  52273-3 0  9993
2 25414  44.9920 189.8701 0004760 110.1845 249.9514 14.35251837327226
ORBCOMM FM19 [+]        
1 25415U 98046C   23363.67976514  .00001441  00000+0  54916-3 0  9993
2 25415  44.9930 190.8957 0003549 106.7654  16.9566 14.35105564327196
